#aV2015 12 24  0  0  0.00000000     288 DD+AD WGS84 FIT  NGA
## 1876 345600.00000000   300.00000000 57380 0.0000000000000
+   31     1  2  3  5  6  7  8  9 10 11 12 13 14 15 16 17 18
+         19 20 21 22 23 24 25 26 27 28 29 30 31 32  0  0  0
+          0  0  0  0  0  0  0  0  0  0  0  0  0  0  0  0  0
+          0  0  0  0  0  0  0  0  0  0  0  0  0  0  0  0  0
+          0  0  0  0  0  0  0  0  0  0  0  0  0  0  0  0  0
++         2  2  2  2  2  2  2  2  2  2  2  2  2  2  2  2  2
++         2  2  2  2  2  2  2  2  2  2  2  2  2  2  0  0  0
++         0  0  0  0  0  0  0  0  0  0  0  0  0  0  0  0  0
++         0  0  0  0  0  0  0  0  0  0  0  0  0  0  0  0  0
++         0  0  0  0  0  0  0  0  0  0  0  0  0  0  0  0  0
%c cc cc ccc ccc cccc cccc cccc cccc ccccc ccccc ccccc ccccc
%c cc cc ccc ccc cccc cccc cccc cccc ccccc ccccc ccccc ccccc
%f  0.0000000  0.000000000  0.00000000000  0.000000000000000
%f  0.0000000  0.000000000  0.00000000000  0.000000000000000
%i    0    0    0    0      0      0      0      0         0
%i    0    0    0    0      0      0      0      0         0
/*      NGA, ST. LOUIS,MO.                                  
/*   EPHEMERIS COMPUTED FROM 2 DAYS OF DATA                 
/*   EPOCHA v2.4 SMOOTHER                                   
/*   G1762 IERS2010 SATAF SATAPC                            
*  2015 12 24 10 45  0.00000000
P  1  20984.723337  11012.171420  12127.893491      7.404730                    
V  1   8618.306821  12984.015163 -26332.351896      0.009142                    
P  2 -12334.955854 -22182.961424   8932.036501    598.358651                    
V  2   9341.592738   5848.056680  28302.452168      0.005544                    
P  3  14881.494350   3541.951202  21712.089824     -2.093947                    
V  3  -8478.085216  26244.792049   1513.468647     -0.051982                    
P  5  -4694.498136 -21276.500111 -15124.922549   -162.028651                    
V  5   8149.329843 -17558.687798  22465.233400      0.036295                    
P  6   -480.541945 -19395.019395  18144.946864    117.489237                    
V  6  16524.054525  16109.193677  17647.929029      0.063703                    
P  7  15857.915406  -3604.867279 -20944.450197    476.303321                    
V  7  16954.304299  20749.261723   8830.060511     -0.013348                    
P  8  19689.726664   7321.903476 -16199.121939    -17.396175                    
V  8 -19812.149789   6177.043755 -21216.630869     -0.014156                    
P  9  24856.807753  -8390.711047  -4195.311184     35.243886                    
V  9   5802.498403   1720.065417  31047.980936      0.080137                    
P 10 -10825.826379  23859.006515  -4205.619129     46.216782                    
V 10  -1077.077929  -5978.189567 -31142.330293      0.036019                    
P 11  24304.251259  10318.311204   2618.485845   -623.476306                    
V 11   1322.047913   6106.039932 -29959.758719     -0.021100                    
P 12 -12871.760916  -6909.350879  22082.524338    355.737309                    
V 12  10157.122198 -26316.366747  -2092.605425      0.028720                    
P 13 -11267.730824 -12901.045179 -20409.324629   -173.587301                    
V 13  25400.316847  -3338.740973 -12084.756716     -0.026741                    
P 14 -14173.794843  14154.947189  17615.774551     13.519269                    
V 14 -21947.919222   1243.855592 -19072.882173     -0.023605                    
P 15 -22200.754374  -4921.141290 -14116.553992   -288.762533                    
V 15  16416.510131  -7012.862571 -23223.293994     -0.019069                    
P 16   2244.943200  21368.339550 -15436.196680    -54.540811                    
V 16  -8803.140726  17526.143480  23466.920634      0.033981                    
P 17  14418.126241 -14264.411043  17356.053819   -197.334447                    
V 17  21428.366386  -1966.860043 -19984.646379     -0.009130                    
P 18 -15446.592237  16308.006831 -13445.990651    465.904575                    
V 18   1937.828857 -18340.427811 -23852.992175      0.038812                    
P 19  20456.932486 -11176.840390  12926.621978   -523.989511                    
V 19  16667.483507   -128.703703 -25618.627689     -0.002697                    
P 20 -14985.237670  -6032.615101 -21239.598369    380.657310                    
V 20   6651.839053 -25909.874891   2751.136529      0.027697                    
P 21 -13522.734300   7939.693823 -20742.908520   -501.317024                    
V 21 -18931.402734 -20769.760502   3947.493367     -0.021807                    
P 22  -6765.231622  25592.794628   1118.848492    418.152486                    
V 22  -4306.030788    -62.643509 -30927.309497     -0.029462                    
P 23  25694.821149    318.255575   7729.807822   -151.348415                    
V 23  -8749.685637   4536.868067  29118.418189     -0.019721                    
P 24 -21284.892812 -12897.558747   9489.859182     -9.741494                    
V 24  -6279.514412 -10643.597629 -28248.014587     -0.004672                    
P 25 -16270.014418   8025.682227  19232.744517    -87.945611                    
V 25   6554.972469 -23794.783936  15567.282174     -0.061734                    
P 26  -3928.331899  25588.271085  -5869.698765   -179.776937                    
V 26  -4911.198592   6263.177981  30584.492071     -0.172530                    
P 27   9615.737884  12822.384302 -21225.793611     47.125846                    
V 27 -26133.688622   6160.189687  -7993.791555      0.033529                    
P 28  12162.520031 -23173.326774  -3674.598052    490.467864                    
V 28   -218.663059   5817.277037 -31968.428815      0.025108                    
P 29 -26016.749763   5013.251492  -1515.403537    649.416910                    
V 29  -2278.078183  -2044.726582  32037.024051      0.012626                    
P 30   8034.692937 -14013.216247 -21071.960582     75.216648                    
V 30  17009.618263  20712.661564  -7366.608612      0.050618                    
P 31   1207.887156  19931.715412  17451.731506    289.981824                    
V 31 -15414.879444 -15824.218532  19621.819349     -0.015480                    
P 32   8607.785495  15911.037136  19539.915769     57.966718                    
V 32 -10638.846219  22498.452797 -13050.144745      0.121394                    
EOF
